[{"OBJECT_NAME":"NUSAT-50 (NANCY ROMAN)","OBJECT_ID":"2024-149AB","EPOCH":"2026-03-09T19:15:16.765632","MEAN_MOTION":15.29713355,"ECCENTRICITY":0.00025229,"INCLINATION":97.3817,"RA_OF_ASC_NODE":150.7693,"ARG_OF_PERICENTER":238.0469,"MEAN_ANOMALY":122.0527,"EPHEMERIS_TYPE":0,"CLASSIFICATION_TYPE":"U","NORAD_CAT_ID":60493,"ELEMENT_SET_NO":999,"REV_AT_EPOCH":8693,"BSTAR":0.0004225155,"MEAN_MOTION_DOT":0.00012094,"MEAN_MOTION_DDOT":0},{"OBJECT_NAME":"STARLINK-34769","OBJECT_ID":"2025-167S","EPOCH":"2026-03-09T06:25:26.868576","MEAN_MOTION":15.30202216,"ECCENTRICITY":0.00011525,"INCLINATION":53.1615,"RA_OF_ASC_NODE":28.7328,"ARG_OF_PERICENTER":76.7668,"MEAN_ANOMALY":283.3461,"EPHEMERIS_TYPE":0,"CLASSIFICATION_TYPE":"U","NORAD_CAT_ID":65094,"ELEMENT_SET_NO":999,"REV_AT_EPOCH":3341,"BSTAR":0.00067167369,"MEAN_MOTION_DOT":0.00019588,"MEAN_MOTION_DDOT":0}]
