NUSAT-50 (NANCY ROMAN)  
1 60493U 24149AB  26068.80227738  .00012094  00000+0  42252-3 0  9994
2 60493  97.3817 150.7693 0002523 238.0469 122.0527 15.29713355 86930
STARLINK-34769          
1 65094U 25167S   26068.26767209  .00019588  00000+0  67167-3 0  9996
2 65094  53.1615  28.7328 0001152  76.7668 283.3461 15.30202216 33416
